{
    "links": {
        "self": "http://www.neowsapp.com/rest/v1/neo/3564725?api_key=iIulBulltgU6a56xZRHN4H3l9WmuAYTsLGpBGhQ2"
    },
    "id": "3564725",
    "neo_reference_id": "3564725",
    "name": "(2011 JE1)",
    "designation": "2011 JE1",
    "nasa_jpl_url": "http://ssd.jpl.nasa.gov/sbdb.cgi?sstr=3564725",
    "absolute_magnitude_h": 21.4,
    "estimated_diameter": {
        "kilometers": {
            "estimated_diameter_min": 0.1394938229,
            "estimated_diameter_max": 0.3119176705
        },
        "meters": {
            "estimated_diameter_min": 139.4938229344,
            "estimated_diameter_max": 311.9176705226
        },
        "miles": {
            "estimated_diameter_min": 0.0866774163,
            "estimated_diameter_max": 0.1938165949
        },
        "feet": {
            "estimated_diameter_min": 457.6569140361,
            "estimated_diameter_max": 1023.3519701574
        }
    },
    "is_potentially_hazardous_asteroid": false,
    "close_approach_data": [
        {
            "close_approach_date": "2011-04-19",
            "close_approach_date_full": "2011-Apr-19 12:01",
            "epoch_date_close_approach": 1303214460000,
            "relative_velocity": {
                "kilometers_per_second": "19.4868249781",
                "kilometers_per_hour": "70152.5699210218",
                "miles_per_hour": "43590.078793426"
            },
            "miss_distance": {
                "astronomical": "0.1816090809",
                "lunar": "70.6459324701",
                "kilometers": "27168331.675297683",
                "miles": "16881618.4919787054"
            },
            "orbiting_body": "Earth"
        }
    ],
    "orbital_data": {
        "orbit_id": "11",
        "orbit_determination_date": "2017-04-06 08:53:32",
        "first_observation_date": "2011-05-03",
        "last_observation_date": "2011-05-22",
        "data_arc_in_days": 19,
        "observations_used": 53,
        "orbit_uncertainty": "7",
        "minimum_orbit_intersection": ".179656",
        "jupiter_tisserand_invariant": "4.215",
        "epoch_osculation": "2459000.5",
        "eccentricity": ".3248232334765652",
        "semi_major_axis": "1.540130430399351",
        "inclination": "35.64159268125418",
        "ascending_node_longitude": "213.4339588900121",
        "orbital_period": "698.1273939254149",
        "perihelion_distance": "1.03986028402138",
        "perihelion_argument": "296.7924406401859",
        "aphelion_distance": "2.040400576777323",
        "perihelion_time": "2459104.907747517202",
        "mean_anomaly": "306.1605583261091",
        "mean_motion": ".5156651968286191",
        "equinox": "J2000",
        "orbit_class": {
            "orbit_class_type": "AMO",
            "orbit_class_description": "Near-Earth asteroid orbits similar to that of 1221 Amor",
            "orbit_class_range": "1.017 AU < q (perihelion) < 1.3 AU"
        }
    },
    "is_sentry_object": false
}